{
  "type": "FeatureCollection",
  "features": [
    {
      "type": "Feature",
      "properties": {
        "dissolve": "209Lake Centerline",
        "scalerank": 6.0,
        "featurecla": "Lake Centerline",
        "name": "Suez Canal",
        "name_alt": null,
        "rivernum": 209,
        "note": null,
        "min_zoom": 5.0,
        "name_en": "Suez Canal",
        "min_label": 6.0
      },
      "bbox": [
        32.359467,
        30.180691,
        32.560964,
        30.424262
      ],
      "geometry": {
        "type": "MultiLineString",
        "coordinates": [
          [
            [
              32.560964,
              30.180691
            ],
            [
              32.560802,
              30.181098
            ],
            [
              32.560802,
              30.181505
            ],
            [
              32.554698,
              30.209296
            ],
            [
              32.538015,
              30.242621
            ],
            [
              32.506928,
              30.266425
            ],
            [
              32.459402,
              30.273546
            ],
            [
              32.430675,
              30.29031
            ],
            [
              32.397472,
              30.337917
            ],
            [
              32.35963,
              30.423936
            ],
            [
              32.359467,
              30.424262
            ]
          ]
        ]
      }
    }
  ]
}
