{
  "type": "FeatureCollection",
  "features": [
    {
      "type": "Feature",
      "properties": {
        "dissolve": "209River",
        "scalerank": 6.0,
        "featurecla": "River",
        "name": "Suez Canal",
        "name_alt": null,
        "rivernum": 209,
        "note": null,
        "min_zoom": 5.0,
        "name_en": "Suez Canal",
        "min_label": 6.0
      },
      "bbox": [
        32.296641,
        30.01142,
        32.577729,
        31.272732
      ],
      "geometry": {
        "type": "MultiLineString",
        "coordinates": [
          [
            [
              32.359874,
              30.423611
            ],
            [
              32.336355,
              30.505154
            ],
            [
              32.322765,
              30.540635
            ],
            [
              32.296641,
              30.566352
            ],
            [
              32.303477,
              30.593044
            ],
            [
              32.334076,
              30.644965
            ],
            [
              32.34433,
              30.720567
            ],
            [
              32.341563,
              30.744696
            ],
            [
              32.3178,
              30.812771
            ],
            [
              32.303477,
              31.244167
            ],
            [
              32.302664,
              31.256537
            ],
            [
              32.308849,
              31.267686
            ],
            [
              32.313894,
              31.272732
            ]
          ],
          [
            [
              32.560802,
              30.181505
            ],
            [
              32.577729,
              30.01142
            ]
          ]
        ]
      }
    }
  ]
}
