{
  "type": "Feature",
  "geometry": {
    "type": "LineString",
    "coordinates": [
      [
        4.442447,
        51.904383
      ],
      [
        4.457359,
        51.900012
      ],
      [
        4.369469,
        51.900223
      ],
      [
        4.32827,
        51.89302
      ],
      [
        4.289818,
        51.89641
      ],
      [
        4.230423,
        51.922673
      ],
      [
        4.151802,
        51.961827
      ],
      [
        4.069748,
        51.987629
      ],
      [
        3.9,
        52
      ],
      [
        3.559619,
        51.659619
      ],
      [
        3.4,
        51.5
      ],
      [
        2.356699,
        51.178984
      ],
      [
        2.1,
        51.1
      ],
      [
        1.813195,
        50.988387
      ],
      [
        1.567687,
        50.892845
      ],
      [
        1.441366,
        50.849032
      ],
      [
        1.3,
        50.8
      ],
      [
        1.193894,
        50.765311
      ],
      [
        0.39288,
        50.503441
      ],
      [
        -0.343359,
        50.262748
      ],
      [
        -0.545959,
        50.196513
      ],
      [
        -0.671539,
        50.155459
      ],
      [
        -1.3,
        49.95
      ],
      [
        -1.47977,
        49.895072
      ],
      [
        -1.665743,
        49.838248
      ],
      [
        -1.93365,
        49.75639
      ],
      [
        -1.992006,
        49.738559
      ],
      [
        -2.39189,
        49.616376
      ],
      [
        -3.197043,
        49.370363
      ],
      [
        -3.986163,
        49.129249
      ],
      [
        -4.030414,
        49.115729
      ],
      [
        -4.270518,
        49.042365
      ],
      [
        -5.06401,
        48.799916
      ],
      [
        -5.5,
        48.6667
      ],
      [
        -6.698867,
        47.340067
      ],
      [
        -7.987368,
        45.91425
      ],
      [
        -10.063992,
        43.402334
      ],
      [
        -10.167909,
        43.146826
      ],
      [
        -10.289669,
        42.796988
      ],
      [
        -11.070622,
        40.553191
      ],
      [
        -11.158374,
        40.301066
      ],
      [
        -11.664545,
        38.84676
      ],
      [
        -11.81009,
        38.428587
      ],
      [
        -12.057515,
        37.717697
      ],
      [
        -12.131862,
        37.504085
      ],
      [
        -12.262448,
        37.128892
      ],
      [
        -12.32612,
        36.945951
      ],
      [
        -12.493983,
        36.463656
      ],
      [
        -12.608538,
        36.134522
      ],
      [
        -12.761203,
        35.695892
      ],
      [
        -12.839781,
        35.470126
      ],
      [
        -13.114888,
        34.6797
      ],
      [
        -13.32875,
        34.065242
      ],
      [
        -13.9051,
        32.4093
      ],
      [
        -15.172119,
        29.337503
      ],
      [
        -15.145809,
        28.538331
      ],
      [
        -15.128174,
        27.999252
      ],
      [
        -18,
        21
      ],
      [
        -18,
        15
      ],
      [
        -17,
        11
      ],
      [
        -13.4277,
        5.5302
      ],
      [
        -10,
        -2e-05
      ],
      [
        -5.531121,
        -5.586708
      ],
      [
        -1.989182,
        -10.0146
      ],
      [
        -1.100476,
        -11.1256
      ],
      [
        0.000405,
        -12.501846
      ],
      [
        1.7833,
        -14.7307
      ],
      [
        3.542734,
        -16.929822
      ],
      [
        5.653262,
        -19.567777
      ],
      [
        7.89386,
        -22.368307
      ],
      [
        10.425227,
        -25.53227
      ],
      [
        12.499733,
        -28.1252
      ],
      [
        18,
        -35
      ],
      [
        22,
        -35
      ],
      [
        26,
        -34.5
      ],
      [
        30.517,
        -34.365
      ],
      [
        35.0115,
        -34.0662
      ],
      [
        36.390766,
        -33.923893
      ],
      [
        40.001483,
        -33.531655
      ],
      [
        42.877817,
        -33.128872
      ],
      [
        47.907599,
        -32.27482
      ],
      [
        50.000771,
        -31.837267
      ],
      [
        51.411778,
        -31.534939
      ],
      [
        52.4574,
        -31.3109
      ],
      [
        57.364335,
        -30.049282
      ],
      [
        59.850755,
        -29.331435
      ],
      [
        61.107776,
        -28.953503
      ],
      [
        64.6843,
        -27.7881
      ],
      [
        66.312924,
        -27.197748
      ],
      [
        68.5686,
        -26.3801
      ],
      [
        70.001174,
        -25.809188
      ],
      [
        72.3571,
        -24.8703
      ],
      [
        73.944701,
        -24.181688
      ],
      [
        76.0526,
        -23.2674
      ],
      [
        77.600719,
        -22.543222
      ],
      [
        80.000395,
        -21.409572
      ],
      [
        80.903432,
        -20.957707
      ],
      [
        82.741545,
        -20.037946
      ],
      [
        86.6262,
        -17.9877
      ],
      [
        86.989745,
        -17.784081
      ],
      [
        86.989753,
        -17.784076
      ],
      [
        87.410925,
        -17.54818
      ],
      [
        90.000624,
        -16.09783
      ],
      [
        93.735063,
        -13.883479
      ],
      [
        95.0611,
        -13.0972
      ],
      [
        100,
        -10
      ],
      [
        104,
        -7
      ],
      [
        104.82827,
        -6.592568
      ],
      [
        105.424805,
        -6.298919
      ],
      [
        105.754542,
        -5.979226
      ],
      [
        105.864207,
        -5.893542
      ],
      [
        106.459579,
        -5.312501
      ],
      [
        106.8,
        -5.2
      ],
      [
        106.1,
        -3
      ],
      [
        105.905189,
        -2.892342
      ],
      [
        105.686282,
        -2.345649
      ],
      [
        105.063239,
        -2.168977
      ],
      [
        104.137095,
        -0.58662
      ],
      [
        103.842773,
        0.568533
      ],
      [
        103.623047,
        0.73881
      ],
      [
        103.6,
        1.1
      ],
      [
        103.658066,
        1.197766
      ],
      [
        103.763466,
        1.259893
      ],
      [
        103.832461,
        1.239207
      ]
    ]
  },
  "properties": {
    "length": 21990.63187274913,
    "units": "km",
    "duration_hours": 494.7496371658822,
    "port_origin": {
      "cty": "Netherlands",
      "name": "Rotterdam",
      "port": "NLRTM",
      "t": 1.0,
      "x": 4.442447,
      "y": 51.904383,
      "share": 1
    },
    "port_dest": {
      "cty": "Singapore",
      "name": "Singapore",
      "port": "SGSIN",
      "t": 1.0,
      "x": 103.832461,
      "y": 1.239207,
      "share": 1
    }
  }
}