{
  "type": "Feature",
  "geometry": {
    "type": "LineString",
    "coordinates": [
      [
        4.442447,
        51.904383
      ],
      [
        4.457359,
        51.900012
      ],
      [
        4.369469,
        51.900223
      ],
      [
        4.32827,
        51.89302
      ],
      [
        4.289818,
        51.89641
      ],
      [
        4.230423,
        51.922673
      ],
      [
        4.151802,
        51.961827
      ],
      [
        4.069748,
        51.987629
      ],
      [
        3.9,
        52
      ],
      [
        3.559619,
        51.659619
      ],
      [
        3.4,
        51.5
      ],
      [
        2.356699,
        51.178984
      ],
      [
        2.1,
        51.1
      ],
      [
        1.813195,
        50.988387
      ],
      [
        1.567687,
        50.892845
      ],
      [
        1.441366,
        50.849032
      ],
      [
        1.3,
        50.8
      ],
      [
        1.193894,
        50.765311
      ],
      [
        0.39288,
        50.503441
      ],
      [
        -0.343359,
        50.262748
      ],
      [
        -0.545959,
        50.196513
      ],
      [
        -0.671539,
        50.155459
      ],
      [
        -1.3,
        49.95
      ],
      [
        -1.47977,
        49.895072
      ],
      [
        -1.665743,
        49.838248
      ],
      [
        -1.93365,
        49.75639
      ],
      [
        -1.992006,
        49.738559
      ],
      [
        -2.39189,
        49.616376
      ],
      [
        -3.197043,
        49.370363
      ],
      [
        -3.986163,
        49.129249
      ],
      [
        -4.030414,
        49.115729
      ],
      [
        -4.270518,
        49.042365
      ],
      [
        -5.06401,
        48.799916
      ],
      [
        -5.5,
        48.6667
      ],
      [
        -6.698867,
        47.340067
      ],
      [
        -7.954994,
        45.668797
      ],
      [
        -8.49576,
        44.934776
      ],
      [
        -9.019938,
        43.924891
      ],
      [
        -9.14264,
        43.688493
      ],
      [
        -9.5,
        43
      ],
      [
        -9.9844,
        40.7798
      ],
      [
        -9.6,
        38.5
      ],
      [
        -9.452092,
        37.781589
      ],
      [
        -9.25,
        36.8
      ],
      [
        -8.219465,
        36.549727
      ],
      [
        -7.26966,
        36.31906
      ],
      [
        -5.75,
        35.95
      ],
      [
        -5.354867,
        35.968819
      ],
      [
        -5.269383,
        35.97289
      ],
      [
        -4.7,
        36
      ],
      [
        -3.683043,
        36.156455
      ],
      [
        -3.264225,
        36.220888
      ],
      [
        -2.590675,
        36.324512
      ],
      [
        -2.244793,
        36.377724
      ],
      [
        -1.62439,
        36.473171
      ],
      [
        -0.366667,
        36.666667
      ],
      [
        3.1,
        37.2
      ],
      [
        7.5,
        37.4
      ],
      [
        10.373031,
        37.482087
      ],
      [
        11,
        37.5
      ],
      [
        11.172235,
        37.454891
      ],
      [
        11.827836,
        37.283186
      ],
      [
        12.086301,
        37.215493
      ],
      [
        12.110644,
        37.209117
      ],
      [
        13.263819,
        36.907095
      ],
      [
        15.2,
        36.4
      ],
      [
        16.726588,
        36.086854
      ],
      [
        17.902084,
        35.845726
      ],
      [
        21.407365,
        35.126694
      ],
      [
        23,
        34.8
      ],
      [
        24.926664,
        34.187436
      ],
      [
        25.478721,
        34.011915
      ],
      [
        26.306431,
        33.748752
      ],
      [
        27.927542,
        33.219565
      ],
      [
        28.212434,
        33.115811
      ],
      [
        28.905525,
        32.863395
      ],
      [
        30.408377,
        32.316071
      ],
      [
        32.1,
        31.7
      ],
      [
        32.359877,
        31.336373
      ],
      [
        32.310104,
        31.102922
      ],
      [
        32.382202,
        30.318359
      ],
      [
        32.557983,
        30.213982
      ],
      [
        32.6,
        29.7
      ],
      [
        33.233643,
        28.444544
      ],
      [
        34.5,
        27
      ],
      [
        37,
        23.6
      ],
      [
        37.786499,
        22.210682
      ],
      [
        38.572998,
        20.807472
      ],
      [
        41.000977,
        17.098792
      ],
      [
        42.341309,
        14.509144
      ],
      [
        42.541058,
        13.676089
      ],
      [
        43.3,
        12.7
      ],
      [
        43.746586,
        12.40439
      ],
      [
        45,
        12
      ],
      [
        50.856149,
        12.884027
      ],
      [
        53.61885,
        13.300009
      ],
      [
        55.041504,
        12.747516
      ],
      [
        59.894005,
        11.083455
      ],
      [
        60.825733,
        10.866984
      ],
      [
        62.0601,
        10.5802
      ],
      [
        64.303249,
        10.031585
      ],
      [
        64.698862,
        9.934828
      ],
      [
        64.992809,
        9.862937
      ],
      [
        65.7044,
        9.6889
      ],
      [
        68.858995,
        8.881605
      ],
      [
        69.3291,
        8.7613
      ],
      [
        69.671733,
        8.6701
      ],
      [
        69.999915,
        8.582747
      ],
      [
        70.817426,
        8.365148
      ],
      [
        75.966807,
        6.966807
      ],
      [
        78.019032,
        6.387793
      ],
      [
        80.1,
        5.8
      ],
      [
        81.9,
        5.9
      ],
      [
        85.9479,
        6.1983
      ],
      [
        90,
        6.4664
      ],
      [
        94.326449,
        6.157121
      ],
      [
        98.128129,
        5.811729
      ],
      [
        99.763807,
        4.084523
      ],
      [
        100.6,
        3.2
      ],
      [
        101.316415,
        2.586072
      ],
      [
        102,
        2
      ],
      [
        103.6,
        1.1
      ],
      [
        103.658066,
        1.197766
      ],
      [
        103.763466,
        1.259893
      ],
      [
        103.832461,
        1.239207
      ]
    ]
  },
  "properties": {
    "length": 15530.538971787173,
    "units": "km",
    "duration_hours": 349.4091741312809,
    "port_origin": {
      "cty": "Netherlands",
      "name": "Rotterdam",
      "port": "NLRTM",
      "t": 1.0,
      "x": 4.442447,
      "y": 51.904383,
      "share": 1
    },
    "port_dest": {
      "cty": "Singapore",
      "name": "Singapore",
      "port": "SGSIN",
      "t": 1.0,
      "x": 103.832461,
      "y": 1.239207,
      "share": 1
    }
  }
}